NORAD_CAT_ID,OBJECT_NAME,OBJECT_TYPE,EPOCH,MEAN_MOTION,ECCENTRICITY,INCLINATION,RA_OF_ASC_NODE,ARG_OF_PERICENTER,MEAN_ANOMALY,BSTAR,MEAN_MOTION_DOT,MEAN_MOTION_DDOT,TLE_LINE0,TLE_LINE1,TLE_LINE2,SEMIMAJOR_AXIS,PERIOD,APOGEE,PERIGEE,DECAYED
52311.0,STARLINK-3750,PAYLOAD,2022-06-04 05:05:01,15.73193618,0.0004191,53.2158,159.3714,7.1362,352.9717,-2.6527e-05,-4.347e-05,0.0,0 STARLINK-3750,1 52311U 22041BC  22155.21182730 -.00004347  00000-0 -26527-4 0  9996,2 52311  53.2158 159.3714 0004191   7.1362 352.9717 15.73193618  8086,6727.913000000001,91.534,352.598,346.959,0.0
52311.0,STARLINK-3750,PAYLOAD,2022-06-04 11:10:56,15.73211187,0.0004532,53.2158,158.1138,12.5083,347.6048,5.6707000000000015e-06,1.71e-06,0.0,0 STARLINK-3750,1 52311U 22041BC  22155.46593364  .00000171  00000-0  56707-5 0  9995,2 52311  53.2158 158.1138 0004532  12.5083 347.6048 15.73211187  8127,6727.863,91.533,352.777,346.67900000000014,0.0
52311.0,STARLINK-3750,PAYLOAD,2022-06-05 22:00:00,15.73198822,0.0004057,53.2157,150.9344,6.7732,294.5096,0.00012436,0.0001686999999999,0.0,0 STARLINK-3750,1 52311U 22041BC  22156.91667824  .00016870  00000-0  12436-3 0  9991,2 52311  53.2157 150.9344 0004057   6.7732 294.5096 15.73198822  8340,6727.899,91.533,352.49300000000005,347.034,0.0
52311.0,STARLINK-3750,PAYLOAD,2022-06-06 14:00:01,15.7319301,0.0004308,53.2156,147.6371,4.3612,114.7889,-0.00010457,-0.00015278,0.0,0 STARLINK-3750,1 52311U 22041BC  22157.58334491 -.00015278  00000-0 -10457-3 0  9990,2 52311  53.2156 147.6371 0004308   4.3612 114.7889 15.73193010  8451,6727.915,91.534,352.67800000000005,346.88199999999995,0.0
52311.0,STARLINK-3750,PAYLOAD,2022-06-06 22:00:00,15.73183854,0.0004042,53.2157,145.9862,5.2085,202.86,0.00048047,0.00067328,0.0,0 STARLINK-3750,1 52311U 22041BC  22157.91667824  .00067328  00000-0  48047-3 0  9993,2 52311  53.2157 145.9862 0004042   5.2085 202.8600 15.73183854  1309,6727.941,91.534,352.526,347.087,0.0
52311.0,STARLINK-3750,PAYLOAD,2022-06-07 06:00:00,15.73233897,0.0004279,53.2157,144.3388,5.2654,291.743,-0.00054571,-0.00076674,0.0,0 STARLINK-3750,1 52311U 22041BC  22158.25001157 -.00076674  00000-0 -54571-3 0  9997,2 52311  53.2157 144.3388 0004279   5.2654 291.7430 15.73233897  8554,6727.799,91.531,352.542,346.785,0.0
52311.0,STARLINK-3750,PAYLOAD,2022-06-07 14:00:01,15.73207069,0.0004263,53.2154,142.6888,3.7331,22.2051,7.3008e-05,9.641e-05,0.0,0 STARLINK-3750,1 52311U 22041BC  22158.58334491  .00009641  00000-0  73008-4 0  9998,2 52311  53.2154 142.6888 0004263   3.7331  22.2051 15.73207069  8610,6727.875,91.533,352.608,346.872,0.0
52311.0,STARLINK-3750,PAYLOAD,2022-06-07 22:00:00,15.732420800000002,0.0004078,53.2158,141.0376,7.3487,107.5322,-0.000313,-0.00044423,0.0,0 STARLINK-3750,1 52311U 22041BC  22158.91667824 -.00044423  00000-0 -31300-3 0  9991,2 52311  53.2158 141.0376 0004078   7.3487 107.5322 15.73242080  1304,6727.775,91.531,352.384,346.897,0.0
52311.0,STARLINK-3750,PAYLOAD,2022-06-08 14:00:01,15.73247285,0.0004242,53.2154,137.7398,6.6921,286.0902,-0.0008695,-0.00121233,0.0,0 STARLINK-3750,1 52311U 22041BC  22159.58334491 -.00121233  00000-0 -86950-3 0  9992,2 52311  53.2154 137.7398 0004242   6.6921 286.0902 15.73247285  1303,6727.76,91.53,352.47900000000016,346.771,0.0
52311.0,STARLINK-3750,PAYLOAD,2022-06-08 22:00:01,15.73137073,0.000404,53.2155,136.0891,6.1751,15.6028,0.00032312,0.00044862,0.0,0 STARLINK-3750,1 52311U 22041BC  22159.91668981  .00044862  00000-0  32312-3 0  9996,2 52311  53.2155 136.0891 0004040   6.1751  15.6028 15.73137073  8828,6728.075,91.537,352.658,347.221,0.0
52311.0,STARLINK-3750,PAYLOAD,2022-06-09 14:00:01,15.73199127,0.0004236,53.215,132.7915,6.341,193.1134,-4.8563e-05,-7.438e-05,0.0,0 STARLINK-3750,1 52311U 22041BC  22160.58334491 -.00007438  00000-0 -48563-4 0  9993,2 52311  53.2150 132.7915 0004236   6.3410 193.1134 15.73199127  1308,6727.898,91.533,352.61300000000006,346.913,0.0
52311.0,STARLINK-3750,PAYLOAD,2022-06-09 22:00:00,15.73205607,0.0004056,53.2154,131.1406,7.7986,280.5786,0.00035659,0.0004975,0.0,0 STARLINK-3750,1 52311U 22041BC  22160.91667824  .00049750  00000-0  35659-3 0  9991,2 52311  53.2154 131.1406 0004056   7.7986 280.5786 15.73205607  8978,6727.879,91.533,352.473,347.015,0.0
52311.0,STARLINK-3750,PAYLOAD,2022-06-10 14:00:01,15.732243300000002,0.000422,53.2151,127.842,5.6279,100.6625,2.7162e-05,3.194e-05,0.0,0 STARLINK-3750,1 52311U 22041BC  22161.58334491  .00003194  00000-0  27162-4 0  9999,2 52311  53.2151 127.8420 0004220   5.6279 100.6625 15.73224330  9089,6727.826,91.532,352.53,346.852,0.0
52311.0,STARLINK-3750,PAYLOAD,2022-06-10 22:00:00,15.73256477,0.0004001,53.2153,126.1916,6.0395,189.2093,-0.00034894,-0.00049452,0.0,0 STARLINK-3750,1 52311U 22041BC  22161.91667824 -.00049452  00000-0 -34894-3 0  9993,2 52311  53.2153 126.1916 0004001   6.0395 189.2093 15.73256477  1300,6727.734,91.53,352.291,346.907,0.0
52311.0,STARLINK-3750,PAYLOAD,2022-06-11 14:00:01,15.73238534,0.0004023,53.2149,122.8931,1.5565,11.5997,-0.0008187999999999,-0.00114243,0.0,0 STARLINK-3750,1 52311U 22041BC  22162.58334491 -.00114243  00000-0 -81880-3 0  9996,2 52311  53.2149 122.8931 0004023   1.5565  11.5997 15.73238534  9243,6727.785,91.531,352.357,346.944,0.0
52311.0,STARLINK-3750,PAYLOAD,2022-06-11 22:00:00,15.73151578,0.0003871,53.2154,121.2428,0.9004,101.184,0.00019704,0.00027072,0.0,0 STARLINK-3750,1 52311U 22041BC  22162.91667824  .00027072  00000-0  19704-3 0  9999,2 52311  53.2154 121.2428 0003871   0.9004 101.1840 15.73151578  9294,6728.033,91.536,352.50300000000016,347.2940000000001,0.0
52311.0,STARLINK-3750,PAYLOAD,2022-06-12 14:00:01,15.73093856,0.0003832,53.2172,117.9413,356.1076,283.6423,0.0012731,0.00181171,0.0,0 STARLINK-3750,1 52311U 22041BC  22163.58334491  .00181171  00000-0  12731-2 0  9997,2 52311  53.2172 117.9413 0003832 356.1076 283.6423 15.73093856  9390,6728.198,91.539,352.641,347.485,0.0
52311.0,STARLINK-3750,PAYLOAD,2022-06-12 22:00:00,15.73258429,0.000393,53.2156,116.2945,5.3233,3.5047,-0.00046579,-0.00065682,0.0,0 STARLINK-3750,1 52311U 22041BC  22163.91667824 -.00065682  00000-0 -46579-3 0  9991,2 52311  53.2156 116.2945 0003930   5.3233   3.5047 15.73258429  9458,6727.729,91.53,352.23800000000006,346.95,0.0
52311.0,STARLINK-3750,PAYLOAD,2022-06-13 06:00:02,15.7319749,0.0004168,53.2154,114.647,6.8918,90.9928,0.00063658,0.00089701,0.0,0 STARLINK-3750,1 52311U 22041BC  22164.25002315  .00089701  00000-0  63658-3 0  9990,2 52311  53.2154 114.6470 0004168   6.8918  90.9928 15.73197490  9505,6727.901999999999,91.533,352.57199999999995,346.963,0.0
52311.0,STARLINK-3750,PAYLOAD,2022-06-13 14:00:01,15.73298461,0.0003945,53.2155,112.9957,4.5734,182.203,-0.0008852,-0.00123635,0.0,0 STARLINK-3750,1 52311U 22041BC  22164.58334491 -.00123635  00000-0 -88520-3 0  9991,2 52311  53.2155 112.9957 0003945   4.5734 182.2030 15.73298461  1309,6727.614000000001,91.527,352.134,346.825,0.0
52311.0,STARLINK-3750,PAYLOAD,2022-06-13 22:00:00,15.73228638,0.0003807,53.2159,111.3458,1.6373,274.1376,-0.00029443,-0.00041809,0.0,0 STARLINK-3750,1 52311U 22041BC  22164.91667824 -.00041809  00000-0 -29443-3 0  9998,2 52311  53.2159 111.3458 0003807   1.6373 274.1376 15.73228638  9600,6727.814,91.532,352.24,347.117,0.0
52311.0,STARLINK-3750,PAYLOAD,2022-06-14 14:00:01,15.73151829,0.0003991,53.2162,108.047,1.4423,92.1923,0.00020301,0.00027914,0.0,0 STARLINK-3750,1 52311U 22041BC  22165.58334491  .00027914  00000-0  20301-3 0  9996,2 52311  53.2162 108.0470 0003991   1.4423  92.1923 15.73151829  1301,6728.033,91.536,352.583,347.212,0.0
52311.0,STARLINK-3750,PAYLOAD,2022-06-14 22:00:00,15.73191972,0.0003864,53.2162,106.3981,3.7705,178.7007,-0.00014713,-0.00021223,0.0,0 STARLINK-3750,1 52311U 22041BC  22165.91667824 -.00021223  00000-0 -14713-3 0  9991,2 52311  53.2162 106.3981 0003864   3.7705 178.7007 15.73191972  1303,6727.918000000002,91.534,352.3830000000001,347.18300000000005,0.0
52311.0,STARLINK-3750,PAYLOAD,2022-06-15 06:00:00,15.73126442,0.0004161,53.2159,104.7506,2.2634,269.1325,0.00041137,0.00057346,0.0,0 STARLINK-3750,1 52311U 22041BC  22166.25001157  .00057346  00000-0  41137-3 0  9993,2 52311  53.2159 104.7506 0004161   2.2634 269.1325 15.73126442  9812,6728.105,91.537,352.769,347.17,0.0
52311.0,STARLINK-3750,PAYLOAD,2022-06-15 14:00:01,15.73158698,0.0003881,53.2159,103.0994,1.5307,358.7344,0.00037378,0.00052086,0.0,0 STARLINK-3750,1 52311U 22041BC  22166.58334491  .00052086  00000-0  37378-3 0  9997,2 52311  53.2159 103.0994 0003881   1.5307 358.7344 15.73158698  1313,6728.013000000001,91.536,352.48900000000015,347.267,0.0
52311.0,STARLINK-3750,PAYLOAD,2022-06-15 22:00:00,15.73225096,0.000385,53.2162,101.4501,2.6647,86.4977,0.00011576,0.00015676,0.0,0 STARLINK-3750,1 52311U 22041BC  22166.91667824  .00015676  00000-0  11576-3 0  9999,2 52311  53.2162 101.4501 0003850   2.6647  86.4977 15.73225096  1301,6727.824000000001,91.532,352.279,347.098,0.0
52311.0,STARLINK-3750,PAYLOAD,2022-06-16 02:00:01,15.73280034,0.0003982,53.216,100.6265,1.7546,311.906,-0.00034952,-0.00049582,0.0,0 STARLINK-3750,1 52311U 22041BC  22167.08334491 -.00049582  00000-0 -34952-3 0  9997,2 52311  53.2160 100.6265 0003982   1.7546 311.9060 15.73280034  1303,6727.667,91.529,352.211,346.853,0.0
52311.0,STARLINK-3750,PAYLOAD,2022-06-19 14:00:01,15.73152463,0.0003694,53.2148,83.305,3.9783,343.5697,0.00027086,0.00037495,0.0,0 STARLINK-3750,1 52311U 22041BC  22170.58334491  .00037495  00000-0  27086-3 0  9994,2 52311  53.2148  83.3050 0003694   3.9783 343.5697 15.73152463  1306,6728.031,91.536,352.381,347.41,0.0
52311.0,STARLINK-3750,PAYLOAD,2022-06-19 22:00:00,15.73196282,0.0003778,53.2152,81.6564,3.918,72.5112,0.00016685,0.00022861,0.0,0 STARLINK-3750,1 52311U 22041BC  22170.91667824  .00022861  00000-0  16685-3 0  9994,2 52311  53.2152  81.6564 0003778   3.9180  72.5112 15.73196282  1304,6727.906,91.533,352.31300000000016,347.22900000000016,0.0
